GALAXY 11 (G-11)        
1 26038U 99071A   25068.12221890  .00000029  00000+0  00000+0 0  9990
2 26038   5.5556  76.1749 0011555 301.4793 235.3196  0.99020144 92396
INTELSAT 9 (IS-9)       
1 26451U 00043A   25067.47128122 -.00000027  00000+0  00000+0 0  9990
2 26451   9.3639  53.3869 0003072 304.0410  44.8761  1.00271488 39461
INTELSAT 10 (IS-10)     
1 26766U 01019A   25068.02455584 -.00000022  00000+0  00000+0 0  9995
2 26766   7.9607  63.9914 0003818 281.6132 256.2764  1.00271407 87260
INTELSAT 901 (IS-901)   
1 26824U 01024A   25067.82276505 -.00000219  00000+0  00000+0 0  9995
2 26824   0.0474 110.1532 0002412 250.0451  75.2526  1.00271357 86926
INTELSAT 902 (IS-902)   
1 26900U 01039A   25067.81824727 -.00000298  00000+0  00000+0 0  9997
2 26900   4.9368  77.4566 0004509 273.2226  60.5449  1.00271161 86029
INTELSAT 904 (IS-904)   
1 27380U 02007A   25067.82233064 -.00000230  00000+0  00000+0 0  9991
2 27380   5.7512  74.7387 0003140 277.9813  80.5679  1.00273730 47091
DIRECTV 5 (TEMPO 1)     
1 27426U 02023A   25067.47145046 -.00000072  00000+0  00000+0 0  9997
2 27426   3.6834  81.1414 0003537 273.5171 231.3474  1.00272126 83455
INTELSAT 905 (IS-905)   
1 27438U 02027A   25064.33100361 -.00000284  00000+0  00000+0 0  9992
2 27438   5.5691  75.4209 0003934 269.5744 256.4341  0.99892540 83265
GALAXY 3C (G-3C)        
1 27445U 02030A   25066.40183660 -.00000165  00000+0  00000+0 0  9995
2 27445   2.5289  84.0060 0002406  53.1606  77.9902  1.00273406 41812
INTELSAT 906 (IS-906)   
1 27513U 02041A   25068.19806542 -.00000002  00000+0  00000+0 0  9992
2 27513   4.6163  78.6525 0003094 249.2807 334.6321  1.00271033 82303
GALAXY 23 (G-23)        
1 27854U 03034A   25067.25315794 -.00000003  00000+0  00000+0 0  9994
2 27854   1.9900  85.5479 0002799 268.9469 141.9378  1.00271748 79072
GALAXY 13 (HORIZONS-1)  
1 27954U 03044A   25067.51228073  .00000117  00000+0  00000+0 0  9993
2 27954   0.2115  92.9724 0002351 264.1105 203.7915  1.00274160 41903
INTELSAT 10-02          
1 28358U 04022A   25067.40322378 -.00000027  00000+0  00000+0 0  9991
2 28358   0.0253 255.5158 0000947  77.5908 337.3936  1.00271726 75883
XM-3 (RHYTHM)           
1 28626U 05008A   25068.11364222 -.00000216  00000+0  00000+0 0  9997
2 28626   0.0661 260.3709 0001694 146.4640  74.7571  1.00268923 73407
DIRECTV 8               
1 28659U 05019A   25068.09027523 -.00000015  00000+0  00000+0 0  9999
2 28659   0.0209 103.6184 0003164 248.0548  88.7743  1.00271262 72525
GALAXY 28 (G-28)        
1 28702U 05022A   25067.29141815 -.00000200  00000+0  00000+0 0  9990
2 28702   2.0949  84.7636 0005343 218.1433 239.2268  1.00271616 47317
GALAXY 16 (G-16)        
1 29236U 06023A   25068.09427171 -.00000143  00000+0  00000+0 0  9992
2 29236   0.0335 228.4048 0002747 115.8354 117.6836  1.00271783 68601
DIRECTV 9S              
1 29494U 06043A   25067.36433855 -.00000128  00000+0  00000+0 0  9998
2 29494   1.2155  86.6305 0003181 263.9309 205.6821  1.00271776 46710
GALAXY 17 (G-17)        
1 31307U 07016B   25067.81138373 -.00000222  00000+0  00000+0 0  9997
2 31307   1.7907  85.8853 0005139 206.4726  81.4482  1.00270268 65130
DIRECTV 10              
1 31862U 07032A   25067.38946453 -.00000118  00000+0  00000+0 0  9993
2 31862   0.0399 328.5684 0000604  15.0437 220.1106  1.00273233 40927
INTELSAT 11 (IS-11)     
1 32253U 07044B   25068.09141953 -.00000285  00000+0  00000+0 0  9997
2 32253   2.3514  84.4440 0003248 265.8207 166.6488  1.00271250 63863
HORIZONS-2              
1 32388U 07063B   25068.10253214 -.00000270  00000+0  00000+0 0  9997
2 32388   1.3989  86.4508 0002213 264.3255 139.3389  1.00273249 63218
DIRECTV 11              
1 32729U 08013A   25068.09418484 -.00000143  00000+0  00000+0 0  9991
2 32729   0.0370 356.5049 0000415 332.9123 132.3116  1.00271360 62274
GALAXY 18 (G-18)        
1 32951U 08024A   25068.08949331  .00000008  00000+0  00000+0 0  9998
2 32951   0.0185 146.9416 0003050 197.7492  91.5091  1.00271719 61420
INTELSAT 25 (IS-25)     
1 33153U 08034A   25068.03618476 -.00000241  00000+0  00000+0 0  9992
2 33153   1.5056  86.1139 0003166 266.5305 155.8269  1.00270468 60971
GALAXY 19 (G-19)        
1 33376U 08045A   25067.39510955 -.00000154  00000+0  00000+0 0  9995
2 33376   0.0462 271.0180 0002804  79.3885 221.1454  1.00270941 60233
FM-5                    
1 35493U 09034A   25068.11364222 -.00000217  00000+0  00000+0 0  9991
2 35493   0.0315 264.3516 0003169 287.0986 290.3382  1.00275193 57312
INTELSAT 14 (IS-14)     
1 36097U 09064A   25068.09141953 -.00000290  00000+0  00000+0 0  9997
2 36097   0.0246  86.6375 0002558 267.4528 160.8344  1.00272143 56038
INTELSAT 15 (IS-15)     
1 36106U 09067A   25067.05942108 -.00000200  00000+0  00000+0 0  9998
2 36106   0.0220 148.6063 0002427 202.9057 281.0413  1.00269575 36553
DIRECTV 12              
1 36131U 09075A   25068.09348979 -.00000120  00000+0  00000+0 0  9997
2 36131   0.0339 358.5902 0000472 358.4673 100.8960  1.00271541 55726
INTELSAT 16 (IS-16)     
1 36397U 10006A   25067.81312133 -.00000261  00000+0  00000+0 0  9995
2 36397   0.0148  97.4471 0002049 248.0855  37.7207  1.00271290 54986
XM-5                    
1 37185U 10053A   25068.09105715 -.00000040  00000+0  00000+0 0  9995
2 37185   0.0197 247.0182 0001331 306.9442 250.6268  1.00272067 52789
INTELSAT 17 (IS-17)     
1 37238U 10065B   25067.91364375 -.00000018  00000+0  00000+0 0  9991
2 37238   0.0124 161.3367 0002708 202.9862 197.4298  1.00272198 48580
INTELSAT 28 (IS-28)     
1 37392U 11016A   25068.13655944 -.00000142  00000+0  00000+0 0  9997
2 37392   0.6014  88.9007 0004135 253.7544 220.6046  1.00146884 50852
INTELSAT 18 (IS-18)     
1 37834U 11056A   25067.79244381  .00000036  00000+0  00000+0 0  9993
2 37834   0.0157 131.8816 0001962 220.2745 279.8218  1.00272879 49149
INTELSAT 22 (IS-22)     
1 38098U 12011A   25067.82822516 -.00000075  00000+0  00000+0 0  9998
2 38098   0.0104 148.0206 0001759 217.6322 171.3623  1.00272390  2527
INTELSAT 19 (IS-19)     
1 38356U 12030A   25067.78966363 -.00000073  00000+0  00000+0 0  9998
2 38356   0.0165 132.3688 0003017 219.3009 265.3116  1.00271574 45779
INTELSAT 20 (IS-20)     
1 38740U 12043A   25067.91336597 -.00000041  00000+0  00000+0 0  9999
2 38740   0.0204 138.7055 0002794  42.2621  23.1882  1.00271944 46088
INTELSAT 21 (IS-21)     
1 38749U 12045A   25068.09697446 -.00000302  00000+0  00000+0 0  9993
2 38749   0.0457 272.2727 0001662  65.8755 165.7597  1.00272800 45974
INTELSAT 23 (IS-23)     
1 38867U 12057A   25067.81763911 -.00000301  00000+0  00000+0 0  9996
2 38867   0.0446 238.4821 0001440 169.6540 359.9263  1.00260907 45287
FM-6                    
1 39360U 13058A   25068.09088339 -.00000034  00000+0  00000+0 0  9995
2 39360   0.0217 235.6114 0000291 347.7032 220.2646  1.00270556 41680
INTELSAT 30 (IS-30)     
1 40271U 14062A   25068.11364222 -.00000168  00000+0  00000+0 0  9993
2 40271   0.0321  74.7872 0001072 336.4901  61.5949  1.00271883 38109
DIRECTV 14              
1 40333U 14078B   25068.09418484 -.00000142  00000+0  00000+0 0  9998
2 40333   0.0072 276.5293 0000355 335.0626 210.0862  1.00270689 37581
DIRECTV 15              
1 40663U 15026A   25068.09348979 -.00000119  00000+0  00000+0 0  9993
2 40663   0.0319  98.7923 0000714 139.6110 219.3944  1.00271498 35872
SKY MEXICO-1            
1 40664U 15026B   25068.10808707 -.00000251  00000+0  00000+0 0  9993
2 40664   0.0383 356.1347 0002344   5.4653 125.5677  1.00271431 35876
INTELSAT 34 (IS-34)     
1 40874U 15039A   25068.10284458 -.00000302  00000+0  00000+0 0  9998
2 40874   0.0223 154.3336 0000757  76.8490 277.3909  1.00266465 34958
INTELSAT 31 (IS-31)     
1 41581U 16035A   25063.60236604 -.00000155  00000+0  00000+0 0  9997
2 41581   0.0097 159.5833 0002430  58.6868  66.1041  1.00269923 31971
INTELSAT 36 (IS-36)     
1 41747U 16053A   25067.57475404 -.00000040  00000+0  00000+0 0  9997
2 41747   0.0202 120.8633 0001486 201.7652 119.2946  1.00268962 31273
INTELSAT 32E (IS-32E)   
1 41945U 17007B   25067.81963735 -.00000285  00000+0  00000+0 0  9994
2 41945   0.0156 111.9018 0000897 244.5362  62.1880  1.00273101 29582
INTELSAT 35E (IS-35E)   
1 42818U 17041A   25068.14836163 -.00000255  00000+0  00000+0 0  9990
2 42818   0.0108 214.2211 0002831 131.1975 200.5628  1.00271782 28144
INTELSAT 37E (IS-37E)   
1 42950U 17059A   25067.82458953 -.00000157  00000+0  00000+0 0  9998
2 42950   0.0179 142.7818 0002185 196.5556 106.2281  1.00270586 27393
AZERSPACE 2 (IS-38)     
1 43632U 18074A   25068.12282706  .00000120  00000+0  00000+0 0  9998
2 43632   0.0182 191.8823 0001490 144.2423 280.2387  1.00268999 23770
HORIZONS-3E             
1 43633U 18074B   25067.79027179 -.00000048  00000+0  00000+0 0  9992
2 43633   0.0368 323.6226 0001096 333.3987 323.1550  1.00271157 23675
AT&T T-16               
1 44333U 19034A   25068.09392420 -.00000132  00000+0  00000+0 0  9999
2 44333   0.0189 106.6317 0001035  68.2121 285.1166  1.00271219 20969
INTELSAT 39 (IS-39)     
1 44476U 19049B   25067.91364375  .00000017  00000+0  00000+0 0  9992
2 44476   0.0263 141.1545 0000665   3.7653  52.7832  1.00270058 20462
GALAXY 30 (G-30)        
1 46114U 20056C   25067.42920861  .00000021  00000+0  00000+0 0  9992
2 46114   0.0256 139.4812 0001830 215.9715 200.4418  1.00271830 16627
GALAXY 33 (G-33)        
1 54026U 22128A   25068.08749506  .00000062  00000+0  00000+0 0  9998
2 54026   0.0246 139.3160 0001987 206.3912  79.8175  1.00270504  9074
GALAXY 34 (G-34)        
1 54027U 22128B   25067.45808432  .00000044  00000+0  00000+0 0  9993
2 54027   0.0181 121.7261 0001430 228.5777 211.9868  1.00270676  9245
GALAXY 31 (G-31)        
1 54243U 22153A   25067.45175832 -.00000002  00000+0  00000+0 0  9997
2 54243   0.0096 153.1756 0001404 181.1577 233.6754  1.00271269  2462
GALAXY 32 (G-32)        
1 54244U 22153B   25065.18003111 -.00000183  00000+0  00000+0 0  9996
2 54244   0.0181 125.0717 0003108 220.9297 151.9538  1.00273042  8455
GALAXY 35 (G-35)        
1 54741U 22170A   25067.46315096 -.00000177  00000+0  00000+0 0  9991
2 54741   0.0102 147.4213 0002046 193.5216 259.0696  1.00271423  8226
GALAXY 36 (G-36)        
1 54742U 22170B   25068.16765729 -.00000202  00000+0  00000+0 0  9991
2 54742   0.0190 122.1608 0002358 285.4358  90.8361  1.00271173  8251
GALAXY 37 (G-37)        
1 57493U 23112A   25067.45542304  .00000033  00000+0  00000+0 0  9998
2 57493   0.0198  85.0434 0002066 258.2265 220.0574  1.00271658  5876
